QIANFAN-25              
1 61558U 24185G   25241.95071697  .00000479  00000+0  28492-3 0  9990
2 61558  88.9746  90.0636 0005668 267.5217  92.5316 14.05771061 54780
QIANFAN-26              
1 61559U 24185H   25241.95007672  .00000241  00000+0  22827-3 0  9996
2 61559  88.9759  91.0752 0005191 349.4838  10.6219 13.77730839 54245
QIANFAN-27              
1 61560U 24185J   25241.93335132  .00000492  00000+0  19574-3 0  9994
2 61560  88.9752  89.2461 0005880 277.0734  82.9791 14.27144258 55217
QIANFAN-28              
1 61561U 24185K   25241.89213796  .00000873  00000+0  34818-3 0  9992
2 61561  88.9768  89.2464 0004930 279.1276  80.9360 14.27720462 55214
QIANFAN-29              
1 61562U 24185L   25241.93827890  .00000167  00000+0  23997-3 0  9996
2 61562  88.9738  92.1542 0010338   5.4921 354.6341 13.50959126 53649
QIANFAN-30              
1 61563U 24185M   25241.90794054  .00000170  00000+0  24918-3 0  9997
2 61563  88.9757  91.6426 0007319 353.8451   6.2609 13.49937249 53927
QIANFAN-31              
1 61564U 24185N   25241.90200404  .00000135  00000+0  17095-3 0  9998
2 61564  88.9742  91.6113 0006933 352.6845   7.4208 13.57910439 53930
QIANFAN-32              
1 61565U 24185P   25241.93454837  .00000163  00000+0  23482-3 0  9991
2 61565  88.9801  91.7424 0009967  15.5642 344.5814 13.50690064 53898
